NORAD_CAT_ID,OBJECT_NAME,OBJECT_TYPE,EPOCH,MEAN_MOTION,ECCENTRICITY,INCLINATION,RA_OF_ASC_NODE,ARG_OF_PERICENTER,MEAN_ANOMALY,BSTAR,MEAN_MOTION_DOT,MEAN_MOTION_DDOT,TLE_LINE0,TLE_LINE1,TLE_LINE2,SEMIMAJOR_AXIS,PERIOD,APOGEE,PERIGEE,DECAYED
51876.0,STARLINK-3583,PAYLOAD,2023-06-06 10:14:32,15.08834185,9.93e-05,53.2153,210.8999,81.4762,278.6342,-6.1833e-06,-3.86e-06,0.0,0 STARLINK-3583,1 51876U 22022AA  23157.42676000 -.00000386  00000-0 -61833-5 0  9993,2 51876  53.2153 210.8999 0000993  81.4762 278.6342 15.08834185 71053,6917.898,95.438,540.45,539.076,0.0
51876.0,STARLINK-3583,PAYLOAD,2023-06-07 06:54:32,15.0884049,8.8e-05,53.216,207.0355,73.5493,286.5596,1.9155e-05,1.7e-07,0.0,0 STARLINK-3583,1 51876U 22022AA  23158.28787553  .00000017  00000-0  19155-4 0  9992,2 51876  53.2160 207.0355 0000880  73.5493 286.5596 15.08840490 71182,6917.879,95.438,540.353,539.135,0.0
51876.0,STARLINK-3583,PAYLOAD,2023-06-07 11:40:41,15.08842068,9.9e-05,53.2157,206.1434,80.3549,279.7555,1.6159e-05,-3.1e-07,0.0,0 STARLINK-3583,1 51876U 22022AA  23158.48659441 -.00000031  00000-0  16159-4 0  9996,2 51876  53.2157 206.1434 0000990  80.3549 279.7555 15.08842068 71212,6917.874,95.437,540.424,539.054,0.0
51876.0,STARLINK-3583,PAYLOAD,2023-06-07 19:37:37,15.08843356,8.59e-05,53.2157,204.6561,91.5267,268.5823,-2.9171e-05,-7.52e-06,0.0,0 STARLINK-3583,1 51876U 22022AA  23158.81779398 -.00000752  00000-0 -29171-4 0  9996,2 51876  53.2157 204.6561 0000859  91.5267 268.5823 15.08843356 71261,6917.87,95.437,540.329,539.141,0.0
51876.0,STARLINK-3583,PAYLOAD,2023-06-08 08:20:42,15.0883433,9.79e-05,53.2154,202.2768,79.0547,281.0556,8.8926e-05,1.128e-05,0.0,0 STARLINK-3583,1 51876U 22022AA  23159.34771861  .00001128  00000-0  88926-4 0  9991,2 51876  53.2154 202.2768 0000979  79.0547 281.0556 15.08834330 71340,6917.898,95.438,540.44,539.085,0.0
51876.0,STARLINK-3583,PAYLOAD,2023-06-09 09:46:53,15.08836581,0.0001023,53.2155,197.5191,90.2608,269.8502,2.1254e-05,5e-07,0.0,0 STARLINK-3583,1 51876U 22022AA  23160.40756174  .00000050  00000-0  21254-4 0  9994,2 51876  53.2155 197.5191 0001023  90.2608 269.8502 15.08836581 71504,6917.891,95.438,540.464,539.048,0.0
51876.0,STARLINK-3583,PAYLOAD,2023-06-09 19:19:12,15.08836421,0.0001024,53.2155,195.735,89.4011,270.7098,3.6459e-05,2.92e-06,0.0,0 STARLINK-3583,1 51876U 22022AA  23160.80500223  .00000292  00000-0  36459-4 0  9991,2 51876  53.2155 195.7350 0001024  89.4011 270.7098 15.08836421 71560,6917.891,95.438,540.465,539.048,0.0
51876.0,STARLINK-3583,PAYLOAD,2023-06-10 11:13:03,15.08839566,0.0001001,53.2151,192.7609,84.3706,275.74,5.4286e-05,5.76e-06,0.0,0 STARLINK-3583,1 51876U 22022AA  23161.46740094  .00000576  00000-0  54286-4 0  9999,2 51876  53.2151 192.7609 0001001  84.3706 275.7400 15.08839566 71666,6917.882,95.438,540.439,539.054,0.0
51876.0,STARLINK-3583,PAYLOAD,2023-06-11 07:53:04,15.088384,9.73e-05,53.2151,188.8946,83.8488,276.2615,8.2691e-05,1.028e-05,0.0,0 STARLINK-3583,1 51876U 22022AA  23162.32852235  .00001028  00000-0  82691-4 0  9990,2 51876  53.2151 188.8946 0000973  83.8488 276.2615 15.08838400 71798,6917.885,95.438,540.423,539.077,0.0
51876.0,STARLINK-3583,PAYLOAD,2023-06-11 20:36:09,15.08841638,9.69e-05,53.2151,186.5154,84.5962,275.514,7.9092e-05,9.71e-06,0.0,0 STARLINK-3583,1 51876U 22022AA  23162.85844037  .00000971  00000-0  79092-4 0  9996,2 51876  53.2151 186.5154 0000969  84.5962 275.5140 15.08841638 71875,6917.875,95.437,540.411,539.07,0.0
51876.0,STARLINK-3583,PAYLOAD,2023-06-12 10:54:37,15.08844608,9.78e-05,53.215,183.8388,84.8757,275.2347,8.9051e-05,1.13e-05,0.0,0 STARLINK-3583,1 51876U 22022AA  23163.45459739  .00001130  00000-0  89051-4 0  9998,2 51876  53.2150 183.8388 0000978  84.8757 275.2347 15.08844608 71964,6917.866,95.437,540.408,539.055,0.0
51876.0,STARLINK-3583,PAYLOAD,2023-06-12 18:51:33,15.08841163,9.82e-05,53.2148,182.3516,85.4627,274.6477,4.9081e-05,4.93e-06,0.0,0 STARLINK-3583,1 51876U 22022AA  23163.78580004  .00000493  00000-0  49081-4 0  9994,2 51876  53.2148 182.3516 0000982  85.4627 274.6477 15.08841163 72013,6917.877,95.437,540.421,539.062,0.0
51876.0,STARLINK-3583,PAYLOAD,2023-06-13 01:13:05,15.0883787,0.0001003,53.2148,181.1625,85.1532,274.9575,2.8879e-05,1.72e-06,0.0,0 STARLINK-3583,1 51876U 22022AA  23164.05076299  .00000172  00000-0  28879-4 0  9997,2 51876  53.2148 181.1625 0001003  85.1532 274.9575 15.08837870 72054,6917.887,95.438,540.446,539.058,0.0
51876.0,STARLINK-3583,PAYLOAD,2023-06-13 05:59:15,15.08837379,0.0001,53.2149,180.2703,85.1597,274.9509,2.2006e-05,6.2e-07,0.0,0 STARLINK-3583,1 51876U 22022AA  23164.24948333  .00000062  00000-0  22006-4 0  9999,2 51876  53.2149 180.2703 0001000  85.1597 274.9509 15.08837379 72084,6917.888,95.438,540.445,539.062,0.0
51876.0,STARLINK-3583,PAYLOAD,2023-06-14 01:03:52,15.08840261,0.0001013,53.2148,176.7017,84.3455,275.7653,8.8913e-06,-1.46e-06,0.0,0 STARLINK-3583,1 51876U 22022AA  23165.04436184 -.00000146  00000-0  88913-5 0  9998,2 51876  53.2148 176.7017 0001013  84.3455 275.7653 15.08840261 72206,6917.88,95.438,540.445,539.044,0.0
51876.0,STARLINK-3583,PAYLOAD,2023-06-15 00:54:40,15.0883508,9.79e-05,53.2153,172.2412,87.3451,272.7653,3.9576e-05,3.42e-06,0.0,0 STARLINK-3583,1 51876U 22022AA  23166.03796472  .00000342  00000-0  39576-4 0  9994,2 51876  53.2153 172.2412 0000979  87.3451 272.7653 15.08835080 72357,6917.895,95.438,540.438,539.083,0.0
51876.0,STARLINK-3583,PAYLOAD,2023-06-15 07:16:12,15.08834924,0.0001002,53.2152,171.0518,86.8092,273.3014,3.3601e-05,2.47e-06,0.0,0 STARLINK-3583,1 51876U 22022AA  23166.30292586  .00000247  00000-0  33601-4 0  9998,2 51876  53.2152 171.0518 0001002  86.8092 273.3014 15.08834924 72391,6917.896,95.438,540.454,539.068,0.0
51876.0,STARLINK-3583,PAYLOAD,2023-06-15 16:48:31,15.08835872,0.0001002,53.2152,169.2678,85.3935,274.7172,3.2799e-05,2.34e-06,0.0,0 STARLINK-3583,1 51876U 22022AA  23166.70036648  .00000234  00000-0  32799-4 0  9990,2 51876  53.2152 169.2678 0001002  85.3935 274.7172 15.08835872 72457,6917.893,95.438,540.451,539.065,0.0
51876.0,STARLINK-3583,PAYLOAD,2023-06-16 07:06:59,15.0884007,0.0001021,53.2153,166.5918,83.8438,276.267,6.023e-05,6.71e-06,0.0,0 STARLINK-3583,1 51876U 22022AA  23167.29652423  .00000671  00000-0  60230-4 0  9996,2 51876  53.2153 166.5918 0001021  83.8438 276.2670 15.08840070 72543,6917.88,95.438,540.451,539.039,0.0
51876.0,STARLINK-3583,PAYLOAD,2023-06-16 16:39:18,15.08835273,0.0001038,53.2153,164.8082,82.7168,277.3943,2.8344e-05,1.63e-06,0.0,0 STARLINK-3583,1 51876U 22022AA  23167.69396888  .00000163  00000-0  28344-4 0  9996,2 51876  53.2153 164.8082 0001038  82.7168 277.3943 15.08835273 72603,6917.895,95.438,540.478,539.042,0.0
51876.0,STARLINK-3583,PAYLOAD,2023-06-16 23:00:51,15.08830803,0.0001049,53.2153,163.6187,84.6057,275.5055,1.4321e-05,-6e-07,0.0,0 STARLINK-3583,1 51876U 22022AA  23167.95893290 -.00000060  00000-0  14321-4 0  9991,2 51876  53.2153 163.6187 0001049  84.6057 275.5055 15.08830803 72648,6917.909,95.438,540.499,539.048,0.0
51876.0,STARLINK-3583,PAYLOAD,2023-06-17 06:57:47,15.08832693,0.0001055,53.2153,162.1319,85.3175,274.7937,2.6793e-05,1.39e-06,0.0,0 STARLINK-3583,1 51876U 22022AA  23168.29013289  .00000139  00000-0  26793-4 0  9993,2 51876  53.2153 162.1319 0001055  85.3175 274.7937 15.08832693 72699,6917.903,95.438,540.498,539.038,0.0
51876.0,STARLINK-3583,PAYLOAD,2023-06-17 16:30:06,15.08834786,0.0001061,53.2153,160.3478,87.223,272.8883,3.6845e-05,2.99e-06,0.0,0 STARLINK-3583,1 51876U 22022AA  23168.68757253  .00000299  00000-0  36845-4 0  9998,2 51876  53.2153 160.3478 0001061  87.2230 272.8883 15.08834786 72756,6917.896,95.438,540.495,539.027,0.0
51876.0,STARLINK-3583,PAYLOAD,2023-06-18 03:37:48,15.08838975,0.000107,53.2152,158.2662,88.1565,271.9549,3.9527e-05,3.41e-06,0.0,0 STARLINK-3583,1 51876U 22022AA  23169.15125083  .00000341  00000-0  39527-4 0  9999,2 51876  53.2152 158.2662 0001070  88.1565 271.9549 15.08838975 72828,6917.884,95.438,540.489,539.008,0.0
51876.0,STARLINK-3583,PAYLOAD,2023-06-18 16:20:53,15.08837901,0.0001057,53.2152,155.8869,84.1414,275.9698,4.1017e-05,3.65e-06,0.0,0 STARLINK-3583,1 51876U 22022AA  23169.68117185  .00000365  00000-0  41017-4 0  9994,2 51876  53.2152 155.8869 0001057  84.1414 275.9698 15.08837901 72900,6917.887,95.438,540.483,539.021,0.0
51876.0,STARLINK-3583,PAYLOAD,2023-06-19 08:14:44,15.08839508,0.0001059,53.215,152.9127,84.4283,275.6829,8.8773e-05,1.125e-05,0.0,0 STARLINK-3583,1 51876U 22022AA  23170.34357074  .00001125  00000-0  88773-4 0  9997,2 51876  53.2150 152.9127 0001059  84.4283 275.6829 15.08839508 73002,6917.882,95.438,540.479,539.014,0.0
51876.0,STARLINK-3583,PAYLOAD,2023-06-19 16:11:40,15.08840059,0.0001071,53.2153,151.426,83.9107,276.2007,7.4269e-05,8.94e-06,0.0,0 STARLINK-3583,1 51876U 22022AA  23170.67477100  .00000894  00000-0  74269-4 0  9993,2 51876  53.2153 151.4260 0001071  83.9107 276.2007 15.08840059 73053,6917.88,95.438,540.486,539.004,0.0
51876.0,STARLINK-3583,PAYLOAD,2023-06-20 04:54:44,15.08845678,0.0001094,53.2156,149.047,85.201,274.9107,8.4191e-05,1.053e-05,0.0,0 STARLINK-3583,1 51876U 22022AA  23171.20468670  .00001053  00000-0  84191-4 0  9998,2 51876  53.2156 149.0470 0001094  85.2010 274.9107 15.08845678 73132,6917.863,95.437,540.485,538.971,0.0
51876.0,STARLINK-3583,PAYLOAD,2023-06-20 08:05:31,15.0884613,0.00011,53.2156,148.4523,84.6737,275.4381,8.2996e-05,1.034e-05,0.0,0 STARLINK-3583,1 51876U 22022AA  23171.33716607  .00001034  00000-0  82996-4 0  9998,2 51876  53.2156 148.4523 0001100  84.6737 275.4381 15.08846130 73157,6917.862,95.437,540.488,538.966,0.0
51876.0,STARLINK-3583,PAYLOAD,2023-06-21 07:56:17,15.08846836,0.0001122,53.2154,143.9907,89.7569,270.3552,7.8291e-05,9.59e-06,0.0,0 STARLINK-3583,1 51876U 22022AA  23172.33076343  .00000959  00000-0  78291-4 0  9993,2 51876  53.2154 143.9907 0001122  89.7569 270.3552 15.08846836 73308,6917.859,95.437,540.501,538.948,0.0
